[{"OBJECT_NAME":"PANDORA","OBJECT_ID":"2026-004AJ","EPOCH":"2026-03-09T23:33:39.015648","MEAN_MOTION":14.87872688,"ECCENTRICITY":0.0006827,"INCLINATION":97.8034,"RA_OF_ASC_NODE":69.2013,"ARG_OF_PERICENTER":94.0251,"MEAN_ANOMALY":266.1746,"EPHEMERIS_TYPE":0,"CLASSIFICATION_TYPE":"U","NORAD_CAT_ID":67395,"ELEMENT_SET_NO":999,"REV_AT_EPOCH":852,"BSTAR":0.00015125074,"MEAN_MOTION_DOT":1.33e-5,"MEAN_MOTION_DDOT":0},{"OBJECT_NAME":"SL-14 R\/B","OBJECT_ID":"1987-062B","EPOCH":"2026-03-09T17:34:43.294656","MEAN_MOTION":14.85636456,"ECCENTRICITY":0.00206459,"INCLINATION":82.5145,"RA_OF_ASC_NODE":173.2193,"ARG_OF_PERICENTER":55.7426,"MEAN_ANOMALY":58.5002,"EPHEMERIS_TYPE":0,"CLASSIFICATION_TYPE":"U","NORAD_CAT_ID":18215,"ELEMENT_SET_NO":999,"REV_AT_EPOCH":6751,"BSTAR":7.5075343e-5,"MEAN_MOTION_DOT":6.77e-6,"MEAN_MOTION_DDOT":0}]
